start=new Date('2023-01-10T00:00:00.000Z').valueOf();
sats=[{"GP_ID":"222540125","BSTAR":"0.00019694000000","OBJECT_ID":"2020-070AV","RA_OF_ASC_NODE":"282.5160","COUNTRY_CODE":"US","OBJECT_NAME":"STARLINK-1675","TLE_LINE2":"2 46575  53.0533 282.5160 0001680  51.1876 308.9263 15.06400731125944","PERIAPSIS":"546.048","RCS_SIZE":"LARGE","MEAN_MOTION_DDOT":"0.0000000000000","CENTER_NAME":"EARTH","FILE":"3737263","TIME_SYSTEM":"UTC","ECCENTRICITY":"0.00016800","REF_FRAME":"TEME","APOAPSIS":"548.375","MEAN_ANOMALY":"308.9263","CLASSIFICATION_TYPE":"U","PERIOD":"95.592","TLE_LINE1":"1 46575U 20070AV  23009.49194700  .00002653  00000-0  19694-3 0  9992","REV_AT_EPOCH":"12594","DECAY_DATE":null,"LAUNCH_DATE":"2020-10-06","EPHEMERIS_TYPE":"0","SEMIMAJOR_AXIS":"6925.346","EPOCH":"2023-01-09T11:48:24.220800","SITE":"AFETR","NORAD_CAT_ID":"46575","MEAN_ELEMENT_THEORY":"SGP4","ARG_OF_PERICENTER":"51.1876","MEAN_MOTION":"15.06400731","MEAN_MOTION_DOT":"0.00002653","ELEMENT_SET_NO":"999","INCLINATION":"53.0533","OBJECT_TYPE":"PAYLOAD"},{"ARG_OF_PERICENTER":"32.5381","MEAN_ELEMENT_THEORY":"SGP4","MEAN_MOTION_DOT":"0.00025890","MEAN_MOTION":"15.06457181","ELEMENT_SET_NO":"999","INCLINATION":"53.0552","OBJECT_TYPE":"PAYLOAD","CLASSIFICATION_TYPE":"U","PERIOD":"95.589","TLE_LINE1":"1 46576U 20070AW  23009.56150086  .00025890  00000-0  17479-2 0  9996","LAUNCH_DATE":"2020-10-06","DECAY_DATE":null,"REV_AT_EPOCH":"12561","SITE":"AFETR","SEMIMAJOR_AXIS":"6925.173","EPHEMERIS_TYPE":"0","EPOCH":"2023-01-09T13:28:33.674304","NORAD_CAT_ID":"46576","CENTER_NAME":"EARTH","MEAN_MOTION_DDOT":"0.0000000000000","FILE":"3737263","ECCENTRICITY":"0.00006190","TIME_SYSTEM":"UTC","MEAN_ANOMALY":"327.5646","REF_FRAME":"TEME","APOAPSIS":"547.467","GP_ID":"222541377","BSTAR":"0.00174790000000","OBJECT_ID":"2020-070AW","OBJECT_NAME":"STARLINK-1677","COUNTRY_CODE":"US","RA_OF_ASC_NODE":"307.1944","RCS_SIZE":"LARGE","TLE_LINE2":"2 46576  53.0552 307.1944 0000619  32.5381 327.5646 15.06457181125612","PERIAPSIS":"546.610"},{"FILE":"3737263","MEAN_MOTION_DDOT":"0.0000000000000","CENTER_NAME":"EARTH","ECCENTRICITY":"0.00016380","TIME_SYSTEM":"UTC","APOAPSIS":"548.343","REF_FRAME":"TEME","MEAN_ANOMALY":"296.6697","BSTAR":"0.00023088000000","GP_ID":"222541127","OBJECT_ID":"2020-070AX","TLE_LINE2":"2 46577  53.0548 307.3447 0001638  63.4459 296.6697 15.06401480125601","RCS_SIZE":"LARGE","PERIAPSIS":"546.075","RA_OF_ASC_NODE":"307.3447","COUNTRY_CODE":"US","OBJECT_NAME":"STARLINK-1682","MEAN_ELEMENT_THEORY":"SGP4","ARG_OF_PERICENTER":"63.4459","ELEMENT_SET_NO":"999","MEAN_MOTION":"15.06401480","MEAN_MOTION_DOT":"0.00003159","INCLINATION":"53.0548","OBJECT_TYPE":"PAYLOAD","PERIOD":"95.592","CLASSIFICATION_TYPE":"U","TLE_LINE1":"1 46577U 20070AX  23009.52465597  .00003159  00000-0  23088-3 0  9997","EPHEMERIS_TYPE":"0","SEMIMAJOR_AXIS":"6925.344","EPOCH":"2023-01-09T12:35:30.275808","SITE":"AFETR","LAUNCH_DATE":"2020-10-06","DECAY_DATE":null,"REV_AT_EPOCH":"12560","NORAD_CAT_ID":"46577"},{"APOAPSIS":"548.660","REF_FRAME":"TEME","MEAN_ANOMALY":"303.5573","TIME_SYSTEM":"UTC","ECCENTRICITY":"0.00021170","MEAN_MOTION_DDOT":"0.0000000000000","CENTER_NAME":"EARTH","FILE":"3737630","COUNTRY_CODE":"US","RA_OF_ASC_NODE":"292.4986","OBJECT_NAME":"STARLINK-1683","TLE_LINE2":"2 46578  53.0545 292.4986 0002117  56.5619 303.5573 15.06406540125518","PERIAPSIS":"545.727","RCS_SIZE":"LARGE","OBJECT_ID":"2020-070AY","GP_ID":"222581985","BSTAR":"0.00054998000000","OBJECT_TYPE":"PAYLOAD","INCLINATION":"53.0545","MEAN_MOTION_DOT":"0.00007921","MEAN_MOTION":"15.06406540","ELEMENT_SET_NO":"999","MEAN_ELEMENT_THEORY":"SGP4","ARG_OF_PERICENTER":"56.5619","NORAD_CAT_ID":"46578","REV_AT_EPOCH":"12551","DECAY_DATE":null,"LAUNCH_DATE":"2020-10-06","EPOCH":"2023-01-09T12:08:19.277952","SEMIMAJOR_AXIS":"6925.329","EPHEMERIS_TYPE":"0","SITE":"AFETR","TLE_LINE1":"1 46578U 20070AY  23009.50577868  .00007921  00000-0  54998-3 0  9996","CLASSIFICATION_TYPE":"U","PERIOD":"95.592"},{"INCLINATION":"53.0572","OBJECT_TYPE":"PAYLOAD","ARG_OF_PERICENTER":"72.6563","MEAN_ELEMENT_THEORY":"SGP4","MEAN_MOTION_DOT":"0.00000532","MEAN_MOTION":"15.06396404","ELEMENT_SET_NO":"999","REV_AT_EPOCH":"12553","DECAY_DATE":null,"LAUNCH_DATE":"2020-10-06","SITE":"AFETR","SEMIMAJOR_AXIS":"6925.360","EPOCH":"2023-01-09T04:16:34.731264","EPHEMERIS_TYPE":"0","NORAD_CAT_ID":"46579","CLASSIFICATION_TYPE":"U","PERIOD":"95.592","TLE_LINE1":"1 46579U 20070AZ  23009.17817976  .00000532  00000-0  54597-4 0  9994","MEAN_ANOMALY":"287.4624","APOAPSIS":"548.477","REF_FRAME":"TEME","CENTER_NAME":"EARTH","MEAN_MOTION_DDOT":"0.0000000000000","FILE":"3736867","ECCENTRICITY":"0.00018080","TIME_SYSTEM":"UTC","OBJECT_NAME":"STARLINK-1705","COUNTRY_CODE":"US","RA_OF_ASC_NODE":"308.9252","TLE_LINE2":"2 46579  53.0572 308.9252 0001808  72.6563 287.4624 15.06396404125537","RCS_SIZE":"LARGE","PERIAPSIS":"545.972","GP_ID":"222511404","BSTAR":"0.00005459700000","OBJECT_ID":"2020-070AZ"},{"APOAPSIS":"548.924","REF_FRAME":"TEME","MEAN_ANOMALY":"314.3633","ECCENTRICITY":"0.00024730","TIME_SYSTEM":"UTC","MEAN_MOTION_DDOT":"0.0000000000000","CENTER_NAME":"EARTH","FILE":"3737263","COUNTRY_CODE":"US","RA_OF_ASC_NODE":"308.7243","OBJECT_NAME":"STARLINK-1708","TLE_LINE2":"2 46580  53.0551 308.7243 0002473  45.7558 314.3633 15.06400805125562","PERIAPSIS":"545.498","RCS_SIZE":"LARGE","OBJECT_ID":"2020-070BA","GP_ID":"222540877","BSTAR":"0.00030176000000","OBJECT_TYPE":"PAYLOAD","INCLINATION":"53.0551","MEAN_MOTION_DOT":"0.00004216","MEAN_MOTION":"15.06400805","ELEMENT_SET_NO":"999","MEAN_ELEMENT_THEORY":"SGP4","ARG_OF_PERICENTER":"45.7558","NORAD_CAT_ID":"46580","DECAY_DATE":null,"REV_AT_EPOCH":"12556","LAUNCH_DATE":"2020-10-06","EPOCH":"2023-01-09T05:20:16.679328","SEMIMAJOR_AXIS":"6925.346","EPHEMERIS_TYPE":"0","SITE":"AFETR","TLE_LINE1":"1 46580U 20070BA  23009.22241527  .00004216  00000-0  30176-3 0  9994","CLASSIFICATION_TYPE":"U","PERIOD":"95.592"},{"ECCENTRICITY":"0.00017670","TIME_SYSTEM":"UTC","FILE":"3737263","MEAN_MOTION_DDOT":"0.0000000000000","CENTER_NAME":"EARTH","REF_FRAME":"TEME","APOAPSIS":"548.397","MEAN_ANOMALY":"285.7516","OBJECT_ID":"2020-070BB","BSTAR":"0.00077287000000","GP_ID":"222541627","PERIAPSIS":"545.950","TLE_LINE2":"2 46581  53.0545 302.3809 0001767  74.3668 285.7516 15.06413074125674","RCS_SIZE":"LARGE","RA_OF_ASC_NODE":"302.3809","COUNTRY_CODE":"US","OBJECT_NAME":"STARLINK-1712","ELEMENT_SET_NO":"999","MEAN_MOTION_DOT":"0.00011253","MEAN_MOTION":"15.06413074","MEAN_ELEMENT_THEORY":"SGP4","ARG_OF_PERICENTER":"74.3668","OBJECT_TYPE":"PAYLOAD","INCLINATION":"53.0545","TLE_LINE1":"1 46581U 20070BB  23009.51959246  .00011253  00000-0  77287-3 0  9994","PERIOD":"95.591","CLASSIFICATION_TYPE":"U","NORAD_CAT_ID":"46581","SEMIMAJOR_AXIS":"6925.308","EPOCH":"2023-01-09T12:28:12.788544","EPHEMERIS_TYPE":"0","SITE":"AFETR","DECAY_DATE":null,"REV_AT_EPOCH":"12567","LAUNCH_DATE":"2020-10-06"},{"TLE_LINE1":"1 46582U 20070BC  23009.50484818  .00006299  00000-0  44130-3 0  9997","PERIOD":"95.592","CLASSIFICATION_TYPE":"U","NORAD_CAT_ID":"46582","SITE":"AFETR","SEMIMAJOR_AXIS":"6925.322","EPOCH":"2023-01-09T12:06:58.882752","EPHEMERIS_TYPE":"0","DECAY_DATE":null,"LAUNCH_DATE":"2020-10-06","REV_AT_EPOCH":"12567","ELEMENT_SET_NO":"999","MEAN_MOTION_DOT":"0.00006299","MEAN_MOTION":"15.06408750","ARG_OF_PERICENTER":"42.6354","MEAN_ELEMENT_THEORY":"SGP4","OBJECT_TYPE":"PAYLOAD","INCLINATION":"53.0542","OBJECT_ID":"2020-070BC","BSTAR":"0.00044130000000","GP_ID":"222539877","PERIAPSIS":"545.966","TLE_LINE2":"2 46582  53.0542 302.4599 0001762  42.6354 317.4772 15.06408750125676","RCS_SIZE":"LARGE","OBJECT_NAME":"STARLINK-1728","COUNTRY_CODE":"US","RA_OF_ASC_NODE":"302.4599","TIME_SYSTEM":"UTC","ECCENTRICITY":"0.00017620","FILE":"3737263","CENTER_NAME":"EARTH","MEAN_MOTION_DDOT":"0.0000000000000","MEAN_ANOMALY":"317.4772","APOAPSIS":"548.407","REF_FRAME":"TEME"},{"MEAN_ANOMALY":"324.2601","REF_FRAME":"TEME","APOAPSIS":"548.865","FILE":"3737263","CENTER_NAME":"EARTH","MEAN_MOTION_DDOT":"0.0000000000000","ECCENTRICITY":"0.00023950","TIME_SYSTEM":"UTC","RCS_SIZE":"LARGE","TLE_LINE2":"2 46583  53.0554 322.2331 0002395  35.8548 324.2601 15.06402252125393","PERIAPSIS":"545.548","OBJECT_NAME":"STARLINK-1729","COUNTRY_CODE":"US","RA_OF_ASC_NODE":"322.2331","BSTAR":"0.00012559000000","GP_ID":"222540126","OBJECT_ID":"2020-070BD","INCLINATION":"53.0554","OBJECT_TYPE":"PAYLOAD","ARG_OF_PERICENTER":"35.8548","MEAN_ELEMENT_THEORY":"SGP4","ELEMENT_SET_NO":"999","MEAN_MOTION_DOT":"0.00001589","MEAN_MOTION":"15.06402252","SITE":"AFETR","SEMIMAJOR_AXIS":"6925.342","EPOCH":"2023-01-09T13:18:38.367072","EPHEMERIS_TYPE":"0","LAUNCH_DATE":"2020-10-06","DECAY_DATE":null,"REV_AT_EPOCH":"12539","NORAD_CAT_ID":"46583","PERIOD":"95.592","CLASSIFICATION_TYPE":"U","TLE_LINE1":"1 46583U 20070BD  23009.55461073  .00001589  00000-0  12559-3 0  9998"},{"ECCENTRICITY":"0.00018070","TIME_SYSTEM":"UTC","FILE":"3737263","CENTER_NAME":"EARTH","MEAN_MOTION_DDOT":"0.0000000000000","MEAN_ANOMALY":"314.8000","APOAPSIS":"548.467","REF_FRAME":"TEME","OBJECT_ID":"2020-070BE","BSTAR":"0.00035421000000","GP_ID":"222541378","TLE_LINE2":"2 46584  53.0552 302.4418 0001807  45.3136 314.8000 15.06399425125670","PERIAPSIS":"545.964","RCS_SIZE":"LARGE","RA_OF_ASC_NODE":"302.4418","COUNTRY_CODE":"US","OBJECT_NAME":"STARLINK-1732","ELEMENT_SET_NO":"999","MEAN_MOTION":"15.06399425","MEAN_MOTION_DOT":"0.00004998","ARG_OF_PERICENTER":"45.3136","MEAN_ELEMENT_THEORY":"SGP4","OBJECT_TYPE":"PAYLOAD","INCLINATION":"53.0552","TLE_LINE1":"1 46584U 20070BE  23009.50853202  .00004998  00000-0  35421-3 0  9993","PERIOD":"95.592","CLASSIFICATION_TYPE":"U","NORAD_CAT_ID":"46584","SITE":"AFETR","EPOCH":"2023-01-09T12:12:17.166528","SEMIMAJOR_AXIS":"6925.350","EPHEMERIS_TYPE":"0","DECAY_DATE":null,"LAUNCH_DATE":"2020-10-06","REV_AT_EPOCH":"12567"}];
